KUZGTU 1 (RS47S)        
1 57217U 23091AV  26205.30648497  .00014658  00000+0  49660-3 0  9994
2 57217  97.5045 270.1803 0009198 331.8007  28.2734 15.30634326170056
SONATE-2                
1 59112U 24043Q   26204.89102330  .00044255  00000+0  51781-3 0  9995
2 59112  97.5560 357.6246 0006311  77.2217 282.9745 15.61425769133619
MESAT1                  
1 60209U 24125G   26205.12047955  .00094198  00000+0  86139-3 0  9999
2 60209  97.2238  63.5502 0010290  85.0907 275.1529 15.67460166115349
OOV-CUBE (TUBSAT-30)    
1 60240U 24128F   26205.11607186  .00002064  00000+0  16615-3 0  9997
2 60240  61.9942  96.7912 0039967 142.0849 218.3069 15.02903757111664
COLIBRI-S (RS67S)       
1 61746U 24199M   26205.28431047  .00028928  00000+0  53076-3 0  9995
2 61746  97.2943  79.5052 0009783 133.7007 226.5056 15.49183283143150
HORS 3 (RS81S)          
1 61753U 24199U   26205.25467765  .00052309  00000+0  70888-3 0  9996
2 61753  97.2924  81.8919 0007995 130.1005 230.0952 15.57485447143327
HORS 4 (RS82S)          
1 61754U 24199V   26205.28396448  .00073478  00000+0  79764-3 0  9991
2 61754  97.2863  83.3896 0007569 124.8749 235.3222 15.63236401143434
SIT-2086                
1 61764U 24199AF  26205.27794914  .00052455  00000+0  76178-3 0  9999
2 61764  97.2881  82.2634 0008780 118.8262 241.3875 15.55603686140197
HYPERVIEW 1G (RS66S)    
1 61772U 24199AP  26205.25740423  .00413610  65495-4  14251-2 0  9993
2 61772  97.2764  87.1784 0008016 131.9098 228.2860 15.89506736140532
ALTAIR (RS65S)          
1 61779U 24199AW  26205.27808132  .00009214  00000+0  25086-3 0  9990
2 61779  97.2987  74.3918 0013084 163.9630 196.2032 15.37642073142817
ASRTU-1 (AO-123)        
1 61781U 24199AY  26205.30026832  .00009148  00000+0  26108-3 0  9998
2 61781  97.2957  73.6398 0014048 167.6540 192.5051 15.36160658139621
SAMSAT-IONOSPHERE (RS7*)
1 61784U 24199BB  26205.28107624  .00070144  00000+0  83261-3 0  9994
2 61784  97.2887  82.1190 0009986 133.2280 226.9813 15.60906780143349
RTU MIREA 1 (RS51S)     
1 61785U 24199BC  26205.27676836  .00092529  00000+0  92265-3 0  9995
2 61785  97.2872  83.1618 0009906 129.3810 230.8328 15.65306346140267
TEVEL2-4                
1 63213U 25052D   26205.26868346  .00025388  00000+0  72871-3 0  9990
2 63213  97.3856 101.7452 0002580  35.5168 324.6247 15.35840472 75805
TEVEL2-5                
1 63214U 25052E   26205.22840864  .00024677  00000+0  71280-3 0  9995
2 63214  97.3853 101.6419 0002643  36.1272 324.0150 15.35646561 75796
TEVEL2-6                
1 63215U 25052F   26204.65512017  .00019677  00000+0  57044-3 0  9994
2 63215  97.3858 101.0520 0002772  40.1546 319.9902 15.35578989 75708
TEVEL2-1                
1 63217U 25052H   26204.50179324  .00019446  00000+0  57430-3 0  9993
2 63217  97.3829 100.4780 0003444  42.4513 317.6997 15.34995797 75668
TEVEL2-3                
1 63218U 25052J   26205.27723689  .00024308  00000+0  71454-3 0  9993
2 63218  97.3842 101.2811 0003160  44.5518 315.5979 15.35098500 75788
TEVEL2-2                
1 63219U 25052K   26204.95817675  .00018137  00000+0  53542-3 0  9998
2 63219  97.3831 100.9381 0003466  41.6997 318.4510 15.35023489 75735
OTP-2                   
1 63235U 25052AB  26205.18773632  .00010254  00000+0  42016-3 0  9992
2 63235  97.3822  97.0684 0007606  46.1315 314.0550 15.24443051 75509
TEVEL2-9                
1 63237U 25052AD  26205.24531183  .00022256  00000+0  69959-3 0  9994
2 63237  97.3899 100.5171 0006704  31.4538 328.7104 15.32970805 75708
TEVEL2-7                
1 63238U 25052AE  26205.22838057  .00021160  00000+0  67210-3 0  9994
2 63238  97.3894 100.4006 0006810  31.2470 328.9176 15.32647077 75692
TEVEL2-8                
1 63239U 25052AF  26205.23698716  .00021362  00000+0  67878-3 0  9996
2 63239  97.3894 100.3850 0006864  32.0106 328.1552 15.32633539 75691
INNOSAT 16 (RS92S7)     
1 64878U 25155C   26205.25614609  .00006903  00000+0  27225-3 0  9997
2 64878  97.4586 172.2810 0012127  61.4232 298.8225 15.25818789 86325
GEOSCAN 6 (RS92S6)      
1 64879U 25155D   26205.25251346  .00013253  00000+0  44695-3 0  9999
2 64879  97.4575 173.9707 0009419  56.6227 303.5914 15.30801598 86434
GEOSCAN 1 (RS92S1)      
1 64880U 25155E   26205.23971069  .00013931  00000+0  46019-3 0  9995
2 64880  97.4571 174.1397 0009379  57.0598 303.1544 15.31460448 86443
239ALFEROV (RS61S)      
1 64881U 25155F   26205.28412647  .00018645  00000+0  56988-3 0  9996
2 64881  97.4571 174.8768 0009035  57.2751 302.9361 15.33883842 86493
GEOSCAN 2 (RS92S2)      
1 64890U 25155Q   26205.29239322  .00013760  00000+0  45106-3 0  9997
2 64890  97.4570 174.3597 0008333  47.0165 313.1774 15.31718456 86468
GEOSCAN 5 (RS92S5)      
1 64891U 25155R   26205.26565097  .00018641  00000+0  56454-3 0  9997
2 64891  97.4562 175.0093 0008128  62.8253 297.3818 15.34184438 86501
GEOSCAN 4 (RS92S4)      
1 64892U 25155S   26205.24590935  .00018583  00000+0  55975-3 0  9997
2 64892  97.4567 175.0491 0008000  63.3056 296.9005 15.34357442 86505
