OBJECT_NAME,OBJECT_ID,EPOCH,MEAN_MOTION,ECCENTRICITY,INCLINATION,RA_OF_ASC_NODE,ARG_OF_PERICENTER,MEAN_ANOMALY,EPHEMERIS_TYPE,CLASSIFICATION_TYPE,NORAD_CAT_ID,ELEMENT_SET_NO,REV_AT_EPOCH,BSTAR,MEAN_MOTION_DOT,MEAN_MOTION_DDOT
KUZGTU 1 (RS47S),2023-091AV,2026-07-24T07:21:20.301408,15.30634326,.00091983,97.5045,270.1803,331.8007,28.2734,0,U,57217,999,17005,.49660449E-3,.14658E-3,0
SONATE-2,2024-043Q,2026-07-23T21:23:04.413120,15.61425769,.00063114,97.5560,357.6246,77.2217,282.9745,0,U,59112,999,13361,.51781182E-3,.44255E-3,0
MESAT1,2024-125G,2026-07-24T02:53:29.433120,15.67460166,.00102904,97.2238,63.5502,85.0907,275.1529,0,U,60209,999,11534,.86138771E-3,.94198E-3,0
OOV-CUBE (TUBSAT-30),2024-128F,2026-07-24T02:47:08.608704,15.02903757,.00399671,61.9942,96.7912,142.0849,218.3069,0,U,60240,999,11166,.16614669E-3,.2064E-4,0
COLIBRI-S (RS67S),2024-199M,2026-07-24T06:49:24.424608,15.49183283,.00097831,97.2943,79.5052,133.7007,226.5056,0,U,61746,999,14315,.53076218E-3,.28928E-3,0
HORS 3 (RS81S),2024-199U,2026-07-24T06:06:44.148960,15.57485447,.00079959,97.2924,81.8919,130.1005,230.0952,0,U,61753,999,14332,.70888303E-3,.52309E-3,0
HORS 4 (RS82S),2024-199V,2026-07-24T06:48:54.531072,15.63236401,.00075691,97.2863,83.3896,124.8749,235.3222,0,U,61754,999,14343,.7976371E-3,.73478E-3,0
SIT-2086,2024-199AF,2026-07-24T06:40:14.805696,15.55603686,.00087809,97.2881,82.2634,118.8262,241.3875,0,U,61764,999,14019,.76178009E-3,.52455E-3,0
HYPERVIEW 1G (RS66S),2024-199AP,2026-07-24T06:10:39.725472,15.89506736,.00080169,97.2764,87.1784,131.9098,228.2860,0,U,61772,999,14053,.14251078E-2,.41361E-2,.65495305E-4
ALTAIR (RS65S),2024-199AW,2026-07-24T06:40:26.226048,15.37642073,.00130847,97.2987,74.3918,163.9630,196.2032,0,U,61779,999,14281,.2508606E-3,.9214E-4,0
ASRTU-1 (AO-123),2024-199AY,2026-07-24T07:12:23.182848,15.36160658,.00140485,97.2957,73.6398,167.6540,192.5051,0,U,61781,999,13962,.26107788E-3,.9148E-4,0
SAMSAT-IONOSPHERE (RS75S),2024-199BB,2026-07-24T06:44:44.987136,15.60906780,.00099863,97.2887,82.1190,133.2280,226.9813,0,U,61784,999,14334,.83261067E-3,.70144E-3,0
RTU MIREA 1 (RS51S),2024-199BC,2026-07-24T06:38:32.786304,15.65306346,.00099061,97.2872,83.1618,129.3810,230.8328,0,U,61785,999,14026,.9226532E-3,.92529E-3,0
TEVEL2-4,2025-052D,2026-07-24T06:26:54.250944,15.35840472,.00025804,97.3856,101.7452,35.5168,324.6247,0,U,63213,999,7580,.72871156E-3,.25388E-3,0
TEVEL2-5,2025-052E,2026-07-24T05:28:54.506496,15.35646561,.00026432,97.3853,101.6419,36.1272,324.0150,0,U,63214,999,7579,.71280419E-3,.24677E-3,0
TEVEL2-6,2025-052F,2026-07-23T15:43:22.382688,15.35578989,.0002772,97.3858,101.0520,40.1546,319.9902,0,U,63215,999,7570,.57043947E-3,.19677E-3,0
TEVEL2-1,2025-052H,2026-07-23T12:02:34.935936,15.34995797,.0003444,97.3829,100.4780,42.4513,317.6997,0,U,63217,999,7566,.5743E-3,.19446E-3,0
TEVEL2-3,2025-052J,2026-07-24T06:39:13.267296,15.35098500,.00031605,97.3842,101.2811,44.5518,315.5979,0,U,63218,999,7578,.71453554E-3,.24308E-3,0
TEVEL2-2,2025-052K,2026-07-23T22:59:46.471200,15.35023489,.00034666,97.3831,100.9381,41.6997,318.4510,0,U,63219,999,7573,.53542016E-3,.18137E-3,0
OTP-2,2025-052AB,2026-07-24T04:30:20.418048,15.24443051,.00076069,97.3822,97.0684,46.1315,314.0550,0,U,63235,999,7550,.42016484E-3,.10254E-3,0
TEVEL2-9,2025-052AD,2026-07-24T05:53:14.942112,15.32970805,.00067045,97.3899,100.5171,31.4538,328.7104,0,U,63237,999,7570,.69958911E-3,.22256E-3,0
TEVEL2-7,2025-052AE,2026-07-24T05:28:52.081248,15.32647077,.00068102,97.3894,100.4006,31.2470,328.9176,0,U,63238,999,7569,.67210128E-3,.2116E-3,0
TEVEL2-8,2025-052AF,2026-07-24T05:41:15.690624,15.32633539,.00068647,97.3894,100.3850,32.0106,328.1552,0,U,63239,999,7569,.67878123E-3,.21362E-3,0
INNOSAT 16 (RS92S7),2025-155C,2026-07-24T06:08:51.022176,15.25818789,.00121278,97.4586,172.2810,61.4232,298.8225,0,U,64878,999,8632,.27225403E-3,.6903E-4,0
GEOSCAN 6 (RS92S6),2025-155D,2026-07-24T06:03:37.162944,15.30801598,.00094199,97.4575,173.9707,56.6227,303.5914,0,U,64879,999,8643,.44695414E-3,.13253E-3,0
GEOSCAN 1 (RS92S1),2025-155E,2026-07-24T05:45:11.003616,15.31460448,.00093796,97.4571,174.1397,57.0598,303.1544,0,U,64880,999,8644,.46019145E-3,.13931E-3,0
239ALFEROV (RS61S),2025-155F,2026-07-24T06:49:08.527008,15.33883842,.00090357,97.4571,174.8768,57.2751,302.9361,0,U,64881,999,8649,.56987592E-3,.18645E-3,0
GEOSCAN 2 (RS92S2),2025-155Q,2026-07-24T07:01:02.774208,15.31718456,.00083335,97.4570,174.3597,47.0165,313.1774,0,U,64890,999,8646,.45106343E-3,.1376E-3,0
GEOSCAN 5 (RS92S5),2025-155R,2026-07-24T06:22:32.243808,15.34184438,.00081286,97.4562,175.0093,62.8253,297.3818,0,U,64891,999,8650,.56454326E-3,.18641E-3,0
GEOSCAN 4 (RS92S4),2025-155S,2026-07-24T05:54:06.567840,15.34357442,.00080004,97.4567,175.0491,63.3056,296.9005,0,U,64892,999,8650,.5597473E-3,.18583E-3,0
